EXACTVIEW-1(ADS-1B)
1 38709U 12039C   18094.45115483 -.00000005  00000-0  18452-4 0  9995
2 38709  99.1301  86.5724 0011562 133.6970 226.5165 14.23969254296287
